              TDR Cartesian                         TDR Cartesian  
    -----------------------------------       --------------------------------
     X    =       -7998708.15                 X    =        -2438006.24
     Y    =      -11297841.18  feet           Y    =        -3443581.99  meter
     Z    =       17411660.55                 Z    =         5307074.14
     XDOT =      18887.634733                 XDOT =        5756.951067
     YDOT =     -15015.260035  feet/sec       YDOT =       -4576.651259  meter/sec
     ZDOT =      -1058.456408                 ZDOT =        -322.617513
  
  
    The mean element set is posted at the UTC for which position is
    just north of the next ascending node relative to the above
    vector time
 
 
    TWO LINE MEAN ELEMENT SET
  
    ISS
    1 25544U 98067A   19141.37066023  .00016717  00000-0  10270-3 0  9101
    2 25544  51.6394 134.4169 0001613   1.6522 358.4635 15.52703665 11089
  
  
    Satellite: ISS
    Catalog Number: 25544
    Epoch time:      19141.37066023   =   yrday.fracday
    Element set:     910
    Inclination:       51.6394  deg
    RA of node:       134.4169  deg
    Eccentricity:     .0001613     
    Arg of perigee:     1.6522  deg
    Mean anomaly:     358.4635  deg
    Mean motion:   15.52703665  rev/day
    Decay rate:    1.67170E-04  rev/day^2
    Epoch rev:            1108
    Checksum:              284
 
 
    Coasting Arc #12 (Orbit 1122)
    ---------------------------------------
 
    Vector Time (GMT): 2019/142/07:45:00.000
    Vector Time (MET): N/A
    Weight (LBS)     : 965984.1
 
              M50 Cartesian                         M50 Keplerian  
    -----------------------------------       --------------------------------
     X    =        1918881.81                 A    =         6782561.41  meter
     Y    =        4027815.22  meter          E    =           .0013408
     Z    =       -5120430.32                 I    =           51.91996
     XDOT =      -5634.798519                 Wp   =           95.47207
     YDOT =       4884.553637  meter/sec      RA   =          128.58628  deg
     ZDOT =       1733.283884                 TA   =          191.22817
                                              MA   =          191.25811
                                              Ha   =            223.517  n.mi
                                              Hp   =            216.882
 
              M50 Cartesian                         J2K Cartesian  
    -----------------------------------       --------------------------------
     X    =        6295543.98                 X    =         1898571.38
     Y    =       13214616.87  feet           Y    =         4049160.65  meter
     Z    =      -16799312.08                 Z    =        -5111157.83
     XDOT =     -18486.871782                 XDOT =       -5697.419585
     YDOT =      16025.438441  feet/sec       YDOT =        4821.191001  meter/sec
     ZDOT =       5686.626916                 ZDOT =        1705.760538
 
              TDR Cartesian                         TDR Cartesian  
    -----------------------------------       --------------------------------
     X    =        5235899.23                 X    =         1595902.09
     Y    =       13720228.26  feet           Y    =         4181925.57  meter
     Z    =      -16757611.86                 Z    =        -5107720.09
     XDOT =     -18846.350035                 XDOT =       -5744.367491
     YDOT =      13974.041999  feet/sec       YDOT =        4259.288001  meter/sec
     ZDOT =       5561.398752                 ZDOT =        1695.114340
  
  
    The mean element set is posted at the UTC for which position is
    just north of the next ascending node relative to the above
    vector time
 
 
    TWO LINE MEAN ELEMENT SET
  
    ISS
    1 25544U 98067A   19142.33609066  .00016717  00000-0  10270-3 0  9119
    2 25544  51.6393 129.6148 0001775  10.2120 349.9068 15.52668462 11237
  
  
    Satellite: ISS
    Catalog Number: 25544
    Epoch time:      19142.33609066   =   yrday.fracday
    Element set:     911
    Inclination:       51.6393  deg
    RA of node:       129.6148  deg
    Eccentricity:     .0001775     
    Arg of perigee:    10.2120  deg
    Mean anomaly:     349.9068  deg
    Mean motion:   15.52668462  rev/day
    Decay rate:    1.67170E-04  rev/day^2
    Epoch rev:            1123
    Checksum:              300
 
 
    Coasting Arc #13 (Orbit 1138)
    ---------------------------------------
 
    Vector Time (GMT): 2019/143/07:45:00.000
    Vector Time (MET): N/A
    Weight (LBS)     : 965984.1
 
              M50 Cartesian                         M50 Keplerian  
    -----------------------------------       --------------------------------
     X    =       -1122831.03                 A    =         6784448.31  meter
     Y    =       -4838362.83  meter          E    =           .0009530
     Z    =        4617129.52                 I    =           51.94637
     XDOT =       5647.928810                 Wp   =           57.49990
     YDOT =      -4210.508183  meter/sec      RA   =          123.62561  deg
     ZDOT =      -3029.218679                 TA   =           62.65884
                                              MA   =           62.56187
                                              Ha   =            223.484  n.mi
                                              Hp   =            216.750
 
              M50 Cartesian                         J2K Cartesian  
    -----------------------------------       --------------------------------
     X    =       -3683828.85                 X    =        -1091071.15
     Y    =      -15873893.81  feet           Y    =        -4850742.14  meter
     Z    =       15148062.74                 Z    =         4611751.72
     XDOT =      18529.950165                 XDOT =        5709.306455
     YDOT =     -13814.003226  feet/sec       YDOT =       -4147.005510  meter/sec
     ZDOT =      -9938.381492                 ZDOT =       -3001.634540
 
              TDR Cartesian                         TDR Cartesian  
    -----------------------------------       --------------------------------
     X    =       -2669353.10                 X    =         -813618.83
     Y    =      -16098171.15  feet           Y    =        -4906722.57  meter
     Z    =       15124098.12                 Z    =         4609825.11
     XDOT =      18340.317796                 XDOT =        5590.128864
     YDOT =     -12289.710818  feet/sec       YDOT =       -3745.903857  meter/sec
     ZDOT =      -9812.912738                 ZDOT =       -2990.975803
  
  
    The mean element set is posted at the UTC for which position is
    just north of the next ascending node relative to the above
    vector time
 
 
    TWO LINE MEAN ELEMENT SET
  
    ISS
    1 25544U 98067A   19143.36588003  .00016717  00000-0  10270-3 0  9121
    2 25544  51.6390 124.4930 0001710  11.9786 348.1407 15.52710971 11399
  
  
    Satellite: ISS
    Catalog Number: 25544
    Epoch time:      19143.36588003   =   yrday.fracday
    Element set:     912
    Inclination:       51.6390  deg
    RA of node:       124.4930  deg
    Eccentricity:     .0001710     
    Arg of perigee:    11.9786  deg
    Mean anomaly:     348.1407  deg
    Mean motion:   15.52710971  rev/day
    Decay rate:    1.67170E-04  rev/day^2
    Epoch rev:            1139
    Checksum:              294
 
 
    Coasting Arc #14 (Orbit 1142)
    ---------------------------------------
 
    Vector Time (GMT): 2019/143/14:00:00.000
    Vector Time (MET): N/A
    Weight (LBS)     : 965984.1
 
              M50 Cartesian                         M50 Keplerian  
    -----------------------------------       --------------------------------
     X    =         225056.25                 A    =         6787826.74  meter
     Y    =       -5707744.35  meter          E    =           .0012563
     Z    =        3658854.39                 I    =           51.96178
     XDOT =       5718.038458                 Wp   =           77.01040
     YDOT =      -2602.619773  meter/sec      RA   =          122.33277  deg
     ZDOT =      -4396.333734                 TA   =           59.76720
                                              MA   =           59.64288
                                              Ha   =            223.537  n.mi
                                              Hp   =            216.737
 
              M50 Cartesian                         J2K Cartesian  
    -----------------------------------       --------------------------------
     X    =         738373.53                 X    =          271092.42
     Y    =      -18726195.38  feet           Y    =        -5704970.68  meter
     Z    =       12004115.44                 Z    =         3660058.71
     XDOT =      18759.968693                 XDOT =        5768.071717
     YDOT =      -8538.778782  feet/sec       YDOT =       -2538.396349  meter/sec
     ZDOT =     -14423.667107                 ZDOT =       -4368.436383
 
              TDR Cartesian                         TDR Cartesian  
    -----------------------------------       --------------------------------
     X    =      -18725467.71                 X    =        -5707522.56
     Y    =        -655129.35  feet           Y    =         -199683.43  meter
     Z    =       12010080.81                 Z    =         3660672.63
     XDOT =      -8590.252194                 XDOT =       -2618.308869
     YDOT =     -17489.586594  feet/sec       YDOT =       -5330.825994  meter/sec
     ZDOT =     -14296.914003                 ZDOT =       -4357.699388
  
  
    The mean element set is posted at the UTC for which position is
    just north of the next ascending node relative to the above
    vector time
 
 
    TWO LINE MEAN ELEMENT SET
  
    ISS
    1 25544U 98067A   19143.62332885  .00016717  00000-0  10270-3 0  9136
    2 25544  51.6384 123.2126 0001999  12.4378 347.6823 15.52694857 11433
  
